COSMOS 2433 (720)       
1 32275U 07052A   25127.94594395 -.00000044  00000+0  00000+0 0  9995
2 32275  65.7953 329.5399 0000795 212.1829 147.8473  2.13104191136424
COSMOS 2432 (719)       
1 32276U 07052B   25128.22691860 -.00000045  00000+0  00000+0 0  9994
2 32276  65.8106 329.6505 0009153 337.7954 183.0205  2.13103318136454
COSMOS 2434 (721)       
1 32393U 07065A   25128.55380956  .00000007  00000+0  00000+0 0  9992
2 32393  64.3139 205.5683 0001246  59.1795 298.7045  2.13101461135144
COSMOS 2436 (723)       
1 32395U 07065C   25128.37961390  .00000004  00000+0  00000+0 0  9998
2 32395  64.3227 205.6423 0016608 358.0517   0.2247  2.13100357135095
COSMOS 2456 (730)       
1 36111U 09070A   25128.64824561 -.00000004  00000+0  00000+0 0  9995
2 36111  64.7785  84.7973 0005987 315.1198 270.8730  2.13103737119843
COSMOS 2457 (733)       
1 36112U 09070B   25128.40888273 -.00000002  00000+0  00000+0 0  9998
2 36112  64.7632  84.6573 0001813 175.4700 358.0373  2.13101200119801
COSMOS 2460 (732)       
1 36402U 10007C   25127.01068133 -.00000043  00000+0  00000+0 0  9998
2 36402  65.6459 328.1791 0002257  64.7490 112.3550  2.13106306118075
COSMOS 2476 (744)       
1 37867U 11064A   25128.46850426  .00000003  00000+0  00000+0 0  9997
2 37867  65.0447  86.5582 0023724 241.7871 116.4959  2.13101578105134
COSMOS 2477 (745)       
1 37868U 11064B   25128.39333789  .00000004  00000+0  00000+0 0  9999
2 37868  65.0514  86.6363 0020937 243.4769 236.9136  2.13103067105136
COSMOS 2475 (743)       
1 37869U 11064C   25128.43291338  .00000004  00000+0  00000+0 0  9998
2 37869  65.0584  86.6529 0026541 256.1046 211.5608  2.13101862105149
COSMOS 2485 (747)       
1 39155U 13019A   25127.00239861  .00000018  00000+0  00000+0 0  9990
2 39155  65.1984  87.2588 0024035 237.7086 122.0361  2.13104567 93627
COSMOS 2492 (754)       
1 39620U 14012A   25127.89795289 -.00000043  00000+0  00000+0 0  9998
2 39620  65.5251 327.6788 0011801 330.4759  29.4901  2.13103327 86606
COSMOS 2500 (755)       
1 40001U 14032A   25128.07300895 -.00000044  00000+0  00000+0 0  9992
2 40001  65.4611 327.4524 0005499 184.3354 175.6921  2.13106117 84827
COSMOS 2501 (702K)      
1 40315U 14075A   25128.32991168  .00000005  00000+0  00000+0 0  9990
2 40315  63.6140 204.3910 0021133 209.5866 150.3492  2.13101492 81220
COSMOS 2514 (751)       
1 41330U 16008A   25127.84421212 -.00000044  00000+0  00000+0 0  9994
2 41330  65.2534 326.8874 0009135 200.4445 159.5502  2.13102710 71982
COSMOS 2522 (752)       
1 42939U 17055A   25128.15246716  .00000000  00000+0  00000+0 0  9993
2 42939  64.0756 205.6746 0009255 237.4230 122.5405  2.13101905 59341
COSMOS 2527 (756)       
1 43508U 18053A   25128.11237034  .00000009  00000+0  00000+0 0  9993
2 43508  65.3578  87.4411 0008668 246.5008 113.3827  2.13102263 53647
COSMOS 2529 (757)       
1 43687U 18086A   25128.21058737  .00000000  00000+0  00000+0 0  9990
2 43687  64.2915 206.2729 0010391 257.1663 102.7699  2.13102097 50654
COSMOS 2534 (758)       
1 44299U 19030A   25128.50947551  .00000004  00000+0  00000+0 0  9997
2 44299  64.3646 206.2469 0012082 278.5688  84.9844  2.13102486 46302
COSMOS 2544 (759)       
1 44850U 19088A   25128.05672427  .00000009  00000+0  00000+0 0  9995
2 44850  65.3449  87.2739 0014688 262.4340  97.3739  2.13102047 42080
COSMOS 2545 (760)       
1 45358U 20018A   25126.37632038 -.00000045  00000+0  00000+0 0  9992
2 45358  64.5918 326.6841 0007122 241.8552 118.1026  2.13102607 39990
COSMOS 2547 (705K)      
1 46805U 20075A   25127.97009600 -.00000003  00000+0  00000+0 0  9997
2 46805  64.5948 206.0031 0008167 238.1780 121.7941  2.13100432 35272
COSMOS 2557 (706K)      
1 52984U 22075A   25128.13703942 -.00000048  00000+0  00000+0 0  9992
2 52984  64.5265 328.7231 0010586 282.9317  76.9831  2.13102178 22087
COSMOS 2559 (707K)      
1 54031U 22130A   25114.94157522 -.00000021  00000+0  00000+0 0  9991
2 54031  64.5047 329.2927 0005146 218.2920 141.7229  2.13101246 19775
COSMOS 2564 (761)       
1 54377U 22161A   25128.73921577  .00000008  00000+0  00000+0 0  9993
2 54377  64.7365 206.1408 0010726 220.2988 139.6766  2.13102072 19014
COSMOS 2569 (703K)      
1 57517U 23114A   25128.28466406  .00000004  00000+0  00000+0 0  9992
2 57517  65.0764  86.2987 0012417 296.3921  63.4542  2.13103795 13630
COSMOS 2584 (704K)      
1 63130U 25042A   25128.17117615  .00000005  00000+0  00000+0 0  9996
2 63130  64.8578  86.5946 0007101 235.5111 124.3962  2.13103756  1419
